LEMUR-2-ALISIA          
1 62706U 25009DB  26176.45855911  .00009788  00000+0  73384-3 0  9996
2 62706  97.6934 258.5708 0002728 183.7724 176.3481 15.02872259101404
LEMUR-2-ROUNDTRIPPER    
1 62711U 25009DG  26176.54404105  .00011439  00000+0  83315-3 0  9998
2 62711  97.7250 259.2119 0005649 110.4963 249.6869 15.03917651 78889
LEMUR-2-MYNAMEISJEFF    
1 62712U 25009DH  26176.54243400  .00010532  00000+0  76764-3 0  9991
2 62712  97.7294 259.5966 0004029 135.3275 224.8275 15.03916865 78886
LEMUR-2-LEIA-PHILIP     
1 63246U 25052AN  26176.48993775  .00001169  00000+0  10571-3 0  9992
2 63246  97.6822  68.3010 0003540 182.4865 177.6340 14.97333511 69911
LEMUR-2-LIA-MARTIN      
1 63248U 25052AQ  26176.42541169  .00005089  00000+0  43735-3 0  9997
2 63248  97.6878  68.7246 0003646 143.4534 216.6938 14.97858114 69914
LEMUR-2-DELOITTE-1      
1 63259U 25052BB  26176.20243745  .00003629  00000+0  31495-3 0  9992
2 63259  97.6928  68.8353 0003281  79.5193 280.6399 14.97658606 69890
LEMUR-2-EMERSONROSE     
1 63261U 25052BD  26176.16975041  .00004378  00000+0  36486-3 0  9998
2 63261  97.6878  69.3754 0001936  76.8592 283.2847 14.99131201 69937
LEMUR-2-MARACHE-FRAN    
1 63262U 25052BE  26176.20629605  .00005224  00000+0  42282-3 0  9998
2 63262  97.6928  69.7460 0004620 350.8350   9.2788 15.00166034 69960
LEMUR-2-THEFALCONER     
1 63264U 25052BG  26176.49729564  .00003904  00000+0  34046-3 0  9998
2 63264  97.6848  68.7362 0001660  15.4960 344.6312 14.97434098 69934
LEMUR-2-UNTITLED-SC     
1 63351U 25061A   26176.48516903  .00003969  00000+0  22454-3 0  9996
2 63351  97.5637 151.7864 0017252 233.1310 126.8340 15.13526378 68840
LEMUR-2-ESPERANZA       
1 63352U 25061B   26176.46180162  .00003658  00000+0  20677-3 0  9999
2 63352  97.5643 151.8585 0016877 232.2758 127.6944 15.13618146 68841
LEMUR-2-KREMPEL-BRO2    
1 63353U 25061C   26176.48638933  .00004049  00000+0  22556-3 0  9999
2 63353  97.5690 152.4271 0017933 224.3430 135.6366 15.14056489 68862
LEMUR-2-THERMORAPTOR    
1 63354U 25061D   26176.20367536  .00004022  00000+0  22362-3 0  9994
2 63354  97.5694 152.2230 0017666 224.2419 135.7401 15.14135220 68827
LEMUR-2-NEUROSPICY      
1 63355U 25061E   26176.43906019  .00003652  00000+0  20290-3 0  9991
2 63355  97.5622 152.0768 0015426 226.6750 133.3197 15.14252626 68869
LEMUR-2-TILLINFINITY    
1 63356U 25061F   26176.47114286  .00004117  00000+0  22440-3 0  9999
2 63356  97.5606 152.4052 0016960 214.0545 145.9600 15.14838282 68898
LEMUR-2-KREMPEL-BRO1    
1 63357U 25061G   26176.44567504  .00003627  00000+0  19918-3 0  9993
2 63357  97.5608 152.2936 0017568 215.6264 144.3797 15.14643692 68888
LEMUR-2-LANGER2SPACE    
1 63358U 25061H   26176.47383125  .00004140  00000+0  22895-3 0  9991
2 63358  97.5612 152.1322 0015380 224.6445 135.3549 15.14340232 68871
LEMUR-2-BALTO           
1 63395U 25052BH  26176.25772768  .00006673  00000+0  53855-3 0  9996
2 63395  97.6920  69.7723 0006677  36.4982 323.6696 15.00169865 69970
LEMUR-2-KRISH           
1 64561U 25135AK  26176.56755830  .00005277  00000+0  47223-3 0  9990
2 64561  97.7745 291.3863 0001189  99.3455 260.7900 14.96274653 55178
LEMUR-2-HUBBLE-4        
1 64565U 25135AP  26176.24464968  .00001390  00000+0  13793-3 0  9995
2 64565  97.7646 290.0421 0002848 296.9282  63.1646 14.93362478 55075
LEMUR-2-SEJONG-2        
1 64586U 25135BL  26176.52798102  .00005557  00000+0  49090-3 0  9997
2 64586  97.7688 291.4912 0002939 306.1005  53.9944 14.96757535 55198
LEMUR-2-HUBBLE-5        
1 64840U 25135BT  26176.26073520  .00001889  00000+0  18182-3 0  9993
2 64840  97.7722 290.7160 0004391 323.5000  36.5920 14.94158336 55114
LEMUR-2-KARENDARRELL    
1 64841U 25135BU  26175.58873744  .00007633  00000+0  61444-3 0  9996
2 64841  97.7677 291.7845 0010340 174.1170 186.0177 15.00203268 55123
LEMUR-2-LUCILLE-ROSE    
1 65403U 25135BV  26176.56271878  .00008403  00000+0  67482-3 0  9994
2 65403  97.7749 292.7853 0012136 252.1371 107.8528 15.00248713 49895
LEMUR-2-AFFIE-WAUWIE    
1 66295U 25248C   26176.42798461  .00027993  00000+0  10290-2 0  9995
2 66295  45.3931  70.3328 0007596 139.4460 220.6996 15.27461055 35853
LEMUR-2-DEANANDMAEVE    
1 66678U 25276N   26176.47898244  .00007904  00000+0  37180-3 0  9994
2 66678  97.4215 249.8170 0004893 343.9758  16.1322 15.19825309 31672
LEMUR-2-STAS-GORBUK     
1 66686U 25276W   26176.16616465  .00006199  00000+0  29549-3 0  9997
2 66686  97.4246 249.5637 0004259 346.6217  13.4904 15.19455571 31627
LEMUR-2-TEODOR          
1 66768U 25276DG  26176.47011295  .00007005  00000+0  31771-3 0  9999
2 66768  97.4153 250.1095 0002364 108.5271 251.6221 15.21132918 31708
LEMUR-2-LAILA           
1 66776U 25276DQ  26176.50859446  .00006980  00000+0  31450-3 0  9995
2 66776  97.4177 250.2732 0002649 123.7540 236.3949 15.21356097 31710
