OBJECT_NAME,OBJECT_ID,EPOCH,MEAN_MOTION,ECCENTRICITY,INCLINATION,RA_OF_ASC_NODE,ARG_OF_PERICENTER,MEAN_ANOMALY,EPHEMERIS_TYPE,CLASSIFICATION_TYPE,NORAD_CAT_ID,ELEMENT_SET_NO,REV_AT_EPOCH,BSTAR,MEAN_MOTION_DOT,MEAN_MOTION_DDOT
LEMUR-2-ALISIA,2025-009DB,2026-06-25T11:00:19.507104,15.02872259,.00027282,97.6934,258.5708,183.7724,176.3481,0,U,62706,999,10140,.73384176E-3,.9788E-4,0
LEMUR-2-ROUNDTRIPPER,2025-009DG,2026-06-25T13:03:25.146720,15.03917651,.00056495,97.7250,259.2119,110.4963,249.6869,0,U,62711,999,7888,.83314895E-3,.11439E-3,0
LEMUR-2-MYNAMEISJEFF,2025-009DH,2026-06-25T13:01:06.297600,15.03916865,.00040293,97.7294,259.5966,135.3275,224.8275,0,U,62712,999,7888,.76764253E-3,.10532E-3,0
LEMUR-2-LEIA-PHILIP,2025-052AN,2026-06-25T11:45:30.621600,14.97333511,.00035407,97.6822,68.3010,182.4865,177.6340,0,U,63246,999,6991,.10571392E-3,.1169E-4,0
LEMUR-2-LIA-MARTIN,2025-052AQ,2026-06-25T10:12:35.570016,14.97858114,.00036466,97.6878,68.7246,143.4534,216.6938,0,U,63248,999,6991,.43734522E-3,.5089E-4,0
LEMUR-2-DELOITTE-1,2025-052BB,2026-06-25T04:51:30.595680,14.97658606,.00032812,97.6928,68.8353,79.5193,280.6399,0,U,63259,999,6989,.3149537E-3,.3629E-4,0
LEMUR-2-EMERSONROSE,2025-052BD,2026-06-25T04:04:26.435424,14.99131201,.00019369,97.6878,69.3754,76.8592,283.2847,0,U,63261,999,6993,.36486363E-3,.4378E-4,0
LEMUR-2-MARACHE-FRAN,2025-052BE,2026-06-25T04:57:03.978720,15.00166034,.00046207,97.6928,69.7460,350.8350,9.2788,0,U,63262,999,6996,.42282317E-3,.5224E-4,0
LEMUR-2-THEFALCONER,2025-052BG,2026-06-25T11:56:06.343296,14.97434098,.00016608,97.6848,68.7362,15.4960,344.6312,0,U,63264,999,6993,.34046143E-3,.3904E-4,0
LEMUR-2-UNTITLED-SC,2025-061A,2026-06-25T11:38:38.604192,15.13526378,.00172526,97.5637,151.7864,233.1310,126.8340,0,U,63351,999,6884,.22453732E-3,.3969E-4,0
LEMUR-2-ESPERANZA,2025-061B,2026-06-25T11:04:59.659968,15.13618146,.00168773,97.5643,151.8585,232.2758,127.6944,0,U,63352,999,6884,.20676513E-3,.3658E-4,0
LEMUR-2-KREMPEL-BRO2,2025-061C,2026-06-25T11:40:24.038112,15.14056489,.00179331,97.5690,152.4271,224.3430,135.6366,0,U,63353,999,6886,.22556161E-3,.4049E-4,0
LEMUR-2-THERMORAPTOR,2025-061D,2026-06-25T04:53:17.551104,15.14135220,.0017666,97.5694,152.2230,224.2419,135.7401,0,U,63354,999,6882,.22362415E-3,.4022E-4,0
LEMUR-2-NEUROSPICY,2025-061E,2026-06-25T10:32:14.800416,15.14252626,.00154262,97.5622,152.0768,226.6750,133.3197,0,U,63355,999,6886,.20289921E-3,.3652E-4,0
LEMUR-2-TILLINFINITY,2025-061F,2026-06-25T11:18:26.743104,15.14838282,.00169601,97.5606,152.4052,214.0545,145.9600,0,U,63356,999,6889,.22439587E-3,.4117E-4,0
LEMUR-2-KREMPEL-BRO1,2025-061G,2026-06-25T10:41:46.323456,15.14643692,.00175681,97.5608,152.2936,215.6264,144.3797,0,U,63357,999,6888,.19917608E-3,.3627E-4,0
LEMUR-2-LANGER2SPACE,2025-061H,2026-06-25T11:22:19.020000,15.14340232,.00153804,97.5612,152.1322,224.6445,135.3549,0,U,63358,999,6887,.22894929E-3,.414E-4,0
LEMUR-2-BALTO,2025-052BH,2026-06-25T06:11:07.671552,15.00169865,.0006677,97.6920,69.7723,36.4982,323.6696,0,U,63395,999,6997,.53854823E-3,.6673E-4,0
LEMUR-2-KRISH,2025-135AK,2026-06-25T13:37:17.037120,14.96274653,.00011896,97.7745,291.3863,99.3455,260.7900,0,U,64561,999,5517,.4722284E-3,.5277E-4,0
LEMUR-2-HUBBLE-4,2025-135AP,2026-06-25T05:52:17.732352,14.93362478,.0002848,97.7646,290.0421,296.9282,63.1646,0,U,64565,999,5507,.13793252E-3,.139E-4,0
LEMUR-2-SEJONG-2,2025-135BL,2026-06-25T12:40:17.560128,14.96757535,.00029398,97.7688,291.4912,306.1005,53.9944,0,U,64586,999,5519,.49090114E-3,.5557E-4,0
LEMUR-2-HUBBLE-5,2025-135BT,2026-06-25T06:15:27.521280,14.94158336,.0004391,97.7722,290.7160,323.5000,36.5920,0,U,64840,999,5511,.18181618E-3,.1889E-4,0
LEMUR-2-KARENDARRELL,2025-135BU,2026-06-24T14:07:46.914816,15.00203268,.00103403,97.7677,291.7845,174.1170,186.0177,0,U,64841,999,5512,.61443818E-3,.7633E-4,0
LEMUR-2-LUCILLE-ROSE,2025-135BV,2026-06-25T13:30:18.902592,15.00248713,.00121362,97.7749,292.7853,252.1371,107.8528,0,U,65403,999,4989,.67481589E-3,.8403E-4,0
LEMUR-2-AFFIE-WAUWIE,2025-248C,2026-06-25T10:16:17.870304,15.27461055,.00075962,45.3931,70.3328,139.4460,220.6996,0,U,66295,999,3585,.10290187E-2,.27993E-3,0
LEMUR-2-DEANANDMAEVE,2025-276N,2026-06-25T11:29:44.082816,15.19825309,.00048938,97.4215,249.8170,343.9758,16.1322,0,U,66678,999,3167,.37179856E-3,.7904E-4,0
LEMUR-2-STAS-GORBUK,2025-276W,2026-06-25T03:59:16.625760,15.19455571,.00042593,97.4246,249.5637,346.6217,13.4904,0,U,66686,999,3162,.29549138E-3,.6199E-4,0
LEMUR-2-TEODOR,2025-276DG,2026-06-25T11:16:57.758880,15.21132918,.00023641,97.4153,250.1095,108.5271,251.6221,0,U,66768,999,3170,.31771156E-3,.7005E-4,0
LEMUR-2-LAILA,2025-276DQ,2026-06-25T12:12:22.561344,15.21356097,.00026495,97.4177,250.2732,123.7540,236.3949,0,U,66776,999,3171,.3145032E-3,.698E-4,0
